PROBA-1                 
1 26958U 01049B   26159.83947169  .00002641  00000+0  17278-3 0  9994
2 26958  97.9601 168.0805 0055561 149.8776 210.5666 15.07459254342362
CUTE-1 (CO-55)          
1 27844U 03031E   26159.74789500  .00000310  00000+0  15325-3 0  9997
2 27844  98.6735 168.4129 0008975 203.1783 156.8992 14.24330726190472
CUBESAT XI-IV (CO-57)   
1 27848U 03031J   26158.95900341  .00000277  00000+0  14071-3 0  9990
2 27848  98.6766 167.3539 0008515 225.8669 134.1810 14.23616071190069
APRIZESAT 4             
1 35684U 09041D   26159.76063958  .00000714  00000+0  91708-4 0  9997
2 35684  98.1412 234.9132 0042997 350.7880   9.2540 14.83868698910112
APRIZESAT 3             
1 35686U 09041F   26159.40513804  .00001288  00000+0  11559-3 0  9992
2 35686  98.2053 312.2095 0062740  95.9665 264.8710 14.96216040915060
PROBA-2                 
1 36037U 09059B   26159.78107247  .00000205  00000+0  58384-4 0  9999
2 36037  98.2451 343.2506 0012235 310.6442  49.3691 14.54858962880309
APRIZESAT 5             
1 37792U 11044E   26159.76500817  .00001235  00000+0  16297-3 0  9993
2 37792  98.2453  92.5668 0052995  31.1827 329.2511 14.81058298797540
APRIZESAT 6             
1 37793U 11044F   26159.74653559  .00000778  00000+0  11682-3 0  9998
2 37793  98.2371  70.0737 0044341 112.2528 312.6846 14.76904004795907
PROBA-V                 
1 39159U 13021A   26159.82554860  .00000074  00000+0  50501-4 0  9990
2 39159  98.3580 138.8452 0004763 143.5758 216.5746 14.23595217679929
APRIZESAT 7             
1 39416U 13066A   26159.83532910  .00001116  00000+0  11589-3 0  9998
2 39416  97.7704 113.1754 0034465 237.8155 121.9720 14.91547118679986
APRIZESAT 8             
1 39425U 13066K   26159.80102691  .00001074  00000+0  12216-3 0  9995
2 39425  97.8218 107.3862 0044840 314.9851  44.7734 14.87636587678429
BUGSAT-1 (TITA)         
1 40014U 14033E   26159.84918104  .00005207  00000+0  27644-3 0  9997
2 40014  98.0418 251.9110 0027425 207.0050 152.9756 15.15495741654578
SAUDISAT 4              
1 40016U 14033G   26159.39459844  .00000775  00000+0  10852-3 0  9998
2 40016  97.7574 305.8342 0046215 101.6982 258.9421 14.79532730644772
APRIZESAT 9             
1 40018U 14033J   26159.65541118  .00000713  00000+0  11216-3 0  9992
2 40018  97.9050 293.0631 0065126 226.8996 132.6753 14.74203594642302
APRIZESAT 10            
1 40019U 14033K   26159.62322706  .00000456  00000+0  79530-4 0  9998
2 40019  97.9640 286.7741 0077602 301.6727  57.6928 14.70875448640997
TECHDEMOSAT-1 (TDS-1)   
1 40076U 14037H   26159.49617622  .00007858  00000+0  44715-3 0  9993
2 40076  98.3815 150.8486 0004631 306.9167  53.1637 15.13167387646914
TECHNOSAT               
1 42829U 17042E   26159.40607312  .00002780  00000+0  19990-3 0  9992
2 42829  97.4267 317.3998 0018857 121.9012 238.4052 15.04901037485389
FLYING LAPTOP           
1 42831U 17042G   26159.85316412  .00003633  00000+0  28731-3 0  9993
2 42831  97.4659 315.7097 0019156 148.8782 211.3581 15.01092236485201
HAWK-A                  
1 43765U 18099H   26159.02818187  .00007426  00000+0  29991-3 0  9991
2 43765  97.3915 211.3837 0033558 319.6598  40.2151 15.24536500411708
HAWK-B                  
1 43794U 18099AN  26159.10454317  .00006926  00000+0  29600-3 0  9994
2 43794  97.3967 210.8933 0031226 338.1496  21.8406 15.22727709411654
HAWK-C                  
1 43799U 18099AT  26158.89441475  .00008636  00000+0  31201-3 0  9995
2 43799  97.3892 212.1188 0039235 320.0343  39.8010 15.27974189412496
SALSAT                  
1 46495U 20068K   26159.64193340  .00008099  00000+0  28424-3 0  9995
2 46495  97.8856 162.1872 0008838 342.8345  17.2593 15.29677178314059
HAWK-2C                 
1 47502U 21006CT  26159.02348930  .00007002  00000+0  21140-3 0  9998
2 47502  97.2283 203.5168 0005660 220.5779 139.5044 15.34554187298092
HAWK-2A                 
1 47505U 21006CW  26159.02607198  .00006903  00000+0  20837-3 0  9996
2 47505  97.2324 204.1917 0005099 224.9271 135.1561 15.34568999298093
HAWK-2B                 
1 47508U 21006CZ  26159.02208965  .00007940  00000+0  23871-3 0  9991
2 47508  97.2194 202.5343 0005642 222.6102 137.4704 15.34642979298093
HAWK-3B                 
1 48931U 21059BE  26159.52421162  .00043760  00000+0  38239-3 0  9995
2 48931  97.6672 355.4179 0003863  11.5267 348.6082 15.68822921276493
HAWK-3C                 
1 48948U 21059BX  26159.52388969  .00040791  00000+0  35662-3 0  9998
2 48948  97.6796   1.0881 0004330  12.1288 348.0076 15.68822702276496
HAWK-3A                 
1 48957U 21059CG  26159.84271154  .00041378  00000+0  36137-3 0  9990
2 48957  97.6737 358.6494 0004314  13.1601 346.9771 15.68845433276545
HAWK-5C                 
1 52754U 22057Y   26159.40022023  .00017207  00000+0  29692-3 0  9992
2 52754  97.6587 318.5039 0005389 108.4821 251.7017 15.51078510224986
HAWK-5B                 
1 52756U 22057AA  26159.40007305  .00017500  00000+0  30190-3 0  9991
2 52756  97.6597 316.8526 0006022 101.2657 258.9271 15.51078713224980
